*******************************************************************************
Ephemeris / WWW_USER Tue Mar 27 19:57:34 2018 Pasadena, USA      / Horizons    
*******************************************************************************
Target body name: Earth (399)                     {source: DE431mx}
Center body name: Solar System Barycenter (0)     {source: DE431mx}
Center-site name: BODY CENTER
*******************************************************************************
Start time      : A.D. 2000-Jan-01 00:00:00.0000 TDB
Stop  time      : A.D. 2010-Jan-01 00:00:00.0000 TDB
Step-size       : 7200 minutes
*******************************************************************************
Center geodetic : 0.00000000,0.00000000,0.0000000 {E-lon(deg),Lat(deg),Alt(km)}
Center cylindric: 0.00000000,0.00000000,0.0000000 {E-lon(deg),Dxy(km),Dz(km)}
Center radii    : (undefined)                                                  
Output units    : AU-D                                                         
Output type     : GEOMETRIC cartesian states
Output format   : 2 (position and velocity)
Reference frame : ICRF/J2000.0                                                 
Coordinate systm: Ecliptic and Mean Equinox of Reference Epoch                 
*******************************************************************************
JDTDB
   X     Y     Z
   VX    VY    VZ
*******************************************************************************
$$SOE
2451544.500000000 = A.D. 2000-Jan-01 00:00:00.0000 TDB 
  -1.756637922977122E-01  9.659912850526895E-01  2.020629118443605E-04
  -1.722857156974862E-02 -3.015071224668472E-03 -5.859931223618532E-08
2451549.500000000 = A.D. 2000-Jan-06 00:00:00.0000 TDB 
  -2.610494488056823E-01  9.471539230220940E-01  2.033067451193680E-04
  -1.690237501381979E-02 -4.515462089971248E-03  4.910042266495408E-07
2451554.500000000 = A.D. 2000-Jan-11 00:00:00.0000 TDB 
  -3.444562601568881E-01  9.208967121108743E-01  2.059663687031325E-04
  -1.643765043363017E-02 -5.979817852057374E-03  4.513566315086085E-07
2451559.500000000 = A.D. 2000-Jan-16 00:00:00.0000 TDB 
  -4.252072966637696E-01  8.874465963404128E-01  2.067173451654092E-04
  -1.584201081511112E-02 -7.389858676084499E-03 -2.219488269938293E-07
2451564.500000000 = A.D. 2000-Jan-21 00:00:00.0000 TDB 
  -5.026829101655308E-01  8.471085228013839E-01  2.039215415821885E-04
  -1.513015395362489E-02 -8.734287773015504E-03 -7.727851946226503E-07
2451569.500000000 = A.D. 2000-Jan-26 00:00:00.0000 TDB 
  -5.763305686195735E-01  8.002107426637726E-01  2.006683900300267E-04
  -1.431068521019412E-02 -1.001402788336703E-02 -3.948166351798646E-07
2451574.500000000 = A.D. 2000-Jan-31 00:00:00.0000 TDB 
  -6.456040150278641E-01  7.470865682704400E-01  2.004614467094335E-04
  -1.338015493213757E-02 -1.122251272247253E-02  2.887004940071666E-07
2451579.500000000 = A.D. 2000-Feb-05 00:00:00.0000 TDB 
  -7.099512484570949E-01  6.881301500308475E-01  2.028531661640364E-04
  -1.234128144222507E-02 -1.234428701755090E-02  5.617497579492703E-07
2451584.500000000 = A.D. 2000-Feb-10 00:00:00.0000 TDB 
  -7.688518819110297E-01  6.238143765600405E-01  2.048697821916348E-04
  -1.120372971587503E-02 -1.336375732726911E-02  1.336665310097712E-07
2451589.500000000 = A.D. 2000-Feb-15 00:00:00.0000 TDB 
  -8.218524284427899E-01  5.546829433866826E-01  2.036331705877414E-04
  -9.984606037551521E-03 -1.426945820295223E-02 -6.012710336957939E-07
2451594.500000000 = A.D. 2000-Feb-20 00:00:00.0000 TDB 
  -8.685930884173427E-01  4.813091825963279E-01  2.000242527630498E-04
  -8.701961366394909E-03 -1.506179038862174E-02 -6.726808895221059E-07
2451599.500000000 = A.D. 2000-Feb-25 00:00:00.0000 TDB 
  -9.087743645989489E-01  4.042455870700498E-01  1.981792998295274E-04
  -7.360657783969421E-03 -1.574515489229127E-02 -1.950250267084682E-08
2451604.500000000 = A.D. 2000-Mar-01 00:00:00.0000 TDB 
  -9.421044321320823E-01  3.240518083370613E-01  1.995667114988183E-04
  -5.962521952862556E-03 -1.631201894942497E-02  4.978746518624321E-07
2451609.500000000 = A.D. 2000-Mar-06 00:00:00.0000 TDB 
  -9.683205103113330E-01  2.413372682421090E-01  2.020979140282103E-04
  -4.517117028564209E-03 -1.675176962867457E-02  3.912997541597370E-07
2451614.500000000 = A.D. 2000-Mar-11 00:00:00.0000 TDB 
  -9.872230015900102E-01  1.567612792336005E-01  2.024410540705562E-04
  -3.040430705325791E-03 -1.705555490731718E-02 -3.025559384934916E-07
2451619.500000000 = A.D. 2000-Mar-16 00:00:00.0000 TDB 
  -9.987085402529382E-01  7.100829883466017E-02  1.994926352512680E-04
  -1.553626674308882E-03 -1.722384852312015E-02 -7.510663307166780E-07
2451624.500000000 = A.D. 2000-Mar-21 00:00:00.0000 TDB 
  -1.002764015180797E+00 -1.526977721270598E-02  1.964408067415944E-04
  -6.916605396144089E-05 -1.726737101550194E-02 -3.486911020366094E-07
2451629.500000000 = A.D. 2000-Mar-26 00:00:00.0000 TDB 
  -9.994060752067817E-01 -1.014649145684520E-01  1.964171164513421E-04
   1.411482675251158E-03 -1.719024517347634E-02  3.049169663791070E-07
2451634.500000000 = A.D. 2000-Mar-31 00:00:00.0000 TDB 
  -9.886650358406239E-01 -1.869631901465490E-01  1.986962807294647E-04
   2.882450784539070E-03 -1.698776674168316E-02  4.987471669184316E-07
2451639.500000000 = A.D. 2000-Apr-05 00:00:00.0000 TDB 
  -9.706175942518379E-01 -2.711261002033799E-01  2.002327106437351E-04
   4.331547402495493E-03 -1.665545482681519E-02  1.182122132439548E-08
2451644.500000000 = A.D. 2000-Apr-10 00:00:00.0000 TDB 
  -9.454173552014308E-01 -3.533002511348149E-01  1.984548111348297E-04
   5.739967984161032E-03 -1.619326246363288E-02 -6.634908713921921E-07
2451649.500000000 = A.D. 2000-Apr-15 00:00:00.0000 TDB 
  -9.133147435675757E-01 -4.328639585969701E-01  1.949014385609719E-04
   7.090925346448436E-03 -1.561418959713586E-02 -6.068549124749591E-07
2451654.500000000 = A.D. 2000-Apr-20 00:00:00.0000 TDB 
  -8.746084923172557E-01 -5.092708610580533E-01  1.934088678806055E-04
   8.381692870242274E-03 -1.493187713129777E-02  3.925544133258996E-08
2451659.500000000 = A.D. 2000-Apr-25 00:00:00.0000 TDB 
  -8.295982436278596E-01 -5.820154685304524E-01  1.949074421971453E-04
   9.611915902283823E-03 -1.414913386052094E-02  4.733230684516555E-07
2451664.500000000 = A.D. 2000-Apr-30 00:00:00.0000 TDB 
  -7.786015746956972E-01 -6.505935322725332E-01  1.970627019610557E-04
   1.077467002387640E-02 -1.326523234217427E-02  2.728040163849152E-07
2451669.500000000 = A.D. 2000-May-05 00:00:00.0000 TDB 
  -7.219841148923368E-01 -7.145000992491979E-01  1.967046803451594E-04
   1.185756379245032E-02 -1.228098091999531E-02 -4.485612102358650E-07
2451674.500000000 = A.D. 2000-May-10 00:00:00.0000 TDB 
  -6.601887406863571E-01 -7.732518567243482E-01  1.932827418496607E-04
   1.284334672645821E-02 -1.120637736204266E-02 -7.684059885583934E-07
2451679.500000000 = A.D. 2000-May-15 00:00:00.0000 TDB 
  -5.937220642627399E-01 -8.264470170940390E-01  1.904680300103436E-04
   1.372661174085855E-02 -1.006115175235985E-02 -2.663145106103244E-07
2451684.500000000 = A.D. 2000-May-20 00:00:00.0000 TDB 
  -5.230860036619592E-01 -8.737630089140120E-01  1.907858879928135E-04
   1.451163235951280E-02 -8.855451529313094E-03  3.435726849717258E-07
2451689.500000000 = A.D. 2000-May-25 00:00:00.0000 TDB 
  -4.487695818997034E-01 -9.149047359503104E-01  1.929999322669626E-04
   1.519815521514937E-02 -7.591707422412885E-03  4.298855867474416E-07
2451694.500000000 = A.D. 2000-May-30 00:00:00.0000 TDB 
  -3.712783383577445E-01 -9.495870319404853E-01  1.939785470537983E-04
   1.578017320733474E-02 -6.272181378406600E-03 -1.292642087851926E-07
2451699.500000000 = A.D. 2000-Jun-04 00:00:00.0000 TDB 
  -2.911612691249217E-01 -9.775424045489336E-01  1.914851808854326E-04
   1.624602645105868E-02 -4.902762225244144E-03 -7.869536280514478E-07
2451704.500000000 = A.D. 2000-Jun-09 00:00:00.0000 TDB 
  -2.090293417945624E-01 -9.985631342583930E-01  1.876683050936877E-04
   1.658598952169182E-02 -3.502314113149224E-03 -5.834112461970361E-07
2451709.500000000 = A.D. 2000-Jun-14 00:00:00.0000 TDB 
  -1.254999938413413E-01 -1.012543856283953E+00  1.864652620556503E-04
   1.680662374346200E-02 -2.088375109317106E-03  1.043334637780007E-07
2451714.500000000 = A.D. 2000-Jun-19 00:00:00.0000 TDB 
  -4.115064974042619E-02 -1.019433470448058E+00  1.881439009020134E-04
   1.691451344465168E-02 -6.663281041859050E-04  4.689823206308724E-07
2451719.500000000 = A.D. 2000-Jun-24 00:00:00.0000 TDB 
   4.345792638859017E-02 -1.019197893860175E+00  1.900269641427214E-04
   1.690992447277373E-02  7.612078758819408E-04  1.737263805548060E-07
2451724.500000000 = A.D. 2000-Jun-29 00:00:00.0000 TDB 
   1.277535365723207E-01 -1.011818917656789E+00  1.890856065734206E-04
   1.678807952776191E-02  2.190039238624402E-03 -5.706515515389959E-07
2451729.500000000 = A.D. 2000-Jul-04 00:00:00.0000 TDB 
   2.111276869947990E-01 -9.973141871027515E-01  1.851357927708121E-04
   1.654006898934419E-02  3.608226326093289E-03 -8.373450000067833E-07
2451734.500000000 = A.D. 2000-Jul-09 00:00:00.0000 TDB 
   2.929477864436070E-01 -9.757919759455547E-01  1.822741746741315E-04
   1.616862446713439E-02  4.993948995296239E-03 -2.292015388321646E-07
2451739.500000000 = A.D. 2000-Jul-14 00:00:00.0000 TDB 
   3.726307202783440E-01 -9.474453341029019E-01  1.827843637253600E-04
   1.568693341376024E-02  6.337456243430906E-03  3.658164174456048E-07
2451744.500000000 = A.D. 2000-Jul-19 00:00:00.0000 TDB 
   4.496448084988259E-01 -9.124913990886896E-01  1.849300648722646E-04
   1.510169115440082E-02  7.636563082935076E-03  3.759284394852718E-07
2451749.500000000 = A.D. 2000-Jul-24 00:00:00.0000 TDB 
   5.234772748577743E-01 -8.711575632731705E-01  1.854861005774213E-04
   1.441407181936004E-02  8.888845415465975E-03 -2.282493197756326E-07
